{
    "CCSDS_OMM_VERS": "3.0",
    "COMMENT": "GENERATED VIA SPACE-TRACK.ORG API",
    "CREATION_DATE": "2025-05-22T22:36:18",
    "ORIGINATOR": "18 SPCS",
    "OBJECT_NAME": "BEIDOU 15",
    "OBJECT_ID": "2012-050B",
    "CENTER_NAME": "EARTH",
    "REF_FRAME": "TEME",
    "TIME_SYSTEM": "UTC",
    "MEAN_ELEMENT_THEORY": "SGP4",
    "EPOCH": "2025-05-22T11:08:33.336672",
    "MEAN_MOTION": "1.86230860",
    "ECCENTRICITY": "0.00143750",
    "INCLINATION": "56.1996",
    "RA_OF_ASC_NODE": "75.8491",
    "ARG_OF_PERICENTER": "344.8702",
    "MEAN_ANOMALY": "15.0674",
    "EPHEMERIS_TYPE": "0",
    "CLASSIFICATION_TYPE": "U",
    "NORAD_CAT_ID": "38775",
    "ELEMENT_SET_NO": "999",
    "REV_AT_EPOCH": "8638",
    "BSTAR": "0.00000000000000",
    "MEAN_MOTION_DOT": "-0.00000020",
    "MEAN_MOTION_DDOT": "0.0000000000000",
    "SEMIMAJOR_AXIS": "27906.203",
    "PERIOD": "773.234",
    "APOAPSIS": "21568.183",
    "PERIAPSIS": "21487.952",
    "OBJECT_TYPE": "PAYLOAD",
    "RCS_SIZE": "LARGE",
    "COUNTRY_CODE": "PRC",
    "LAUNCH_DATE": "2012-09-18",
    "SITE": "XSC",
    "DECAY_DATE": null,
    "FILE": "4736334",
    "GP_ID": "288161660",
    "TLE_LINE0": "0 BEIDOU 15",
    "TLE_LINE1": "1 38775U 12050B   25142.46427473 -.00000020  00000-0  00000+0 0  9991",
    "TLE_LINE2": "2 38775  56.1996  75.8491 0014375 344.8702  15.0674  1.86230860 86382"
}